{
  "type": "FeatureCollection",
  "features": [
    {
      "type": "Feature",
      "properties": {
        "norad_id": 66725,
        "name": "FLOCK 4H-22",
        "group": "last-30-days",
        "lat": -69.9271806755347,
        "lon": -132.95342204640778,
        "alt_km": 519.9694529515318,
        "timestamp": "2025-12-22T09:53:36.143996+00:00",
        "meta_object_name": "FLOCK 4H-22",
        "meta_object_id": "2025-276BM",
        "meta_epoch": "2025-12-22T04:02:29.385024",
        "meta_mean_motion": 15.17478508,
        "meta_eccentricity": 0.0001606,
        "meta_inclination": 97.4381,
        "meta_ra_of_asc_node": 67.7556,
        "meta_arg_of_pericenter": 296.8349,
        "meta_mean_anomaly": 63.272,
        "meta_ephemeris_type": 0,
        "meta_classification_type": "U",
        "meta_norad_cat_id": 66725,
        "meta_element_set_no": 999,
        "meta_rev_at_epoch": 355,
        "meta_bstar": 0.00031766,
        "meta_mean_motion_dot": 6.298e-05,
        "meta_mean_motion_ddot": 0,
        "tle_line1": "1 66725U 25276BM  25356.16839566  .00006298  00000+0  31766-3 0  9993",
        "tle_line2": "2 66725  97.4381  67.7556 0001606 296.8349  63.2720 15.17478508  3559"
      },
      "geometry": {
        "type": "Point",
        "coordinates": [
          -132.95342204640778,
          -69.9271806755347
        ]
      }
    },
    {
      "type": "Feature",
      "properties": {
        "norad_id": 66726,
        "name": "FLOCK 4H-23",
        "group": "last-30-days",
        "lat": -51.612214127658284,
        "lon": -121.48971443251774,
        "alt_km": 518.9914129568424,
        "timestamp": "2025-12-22T09:53:36.144008+00:00",
        "meta_object_name": "FLOCK 4H-23",
        "meta_object_id": "2025-276BN",
        "meta_epoch": "2025-12-22T02:32:29.675328",
        "meta_mean_motion": 15.17211745,
        "meta_eccentricity": 0.0003379,
        "meta_inclination": 97.4447,
        "meta_ra_of_asc_node": 67.7096,
        "meta_arg_of_pericenter": 247.5701,
        "meta_mean_anomaly": 112.5174,
        "meta_ephemeris_type": 0,
        "meta_classification_type": "U",
        "meta_norad_cat_id": 66726,
        "meta_element_set_no": 999,
        "meta_rev_at_epoch": 354,
        "meta_bstar": 0.00041499,
        "meta_mean_motion_dot": 8.187e-05,
        "meta_mean_motion_ddot": 0,
        "tle_line1": "1 66726U 25276BN  25356.10589902  .00008187  00000+0  41499-3 0  9997",
        "tle_line2": "2 66726  97.4447  67.7096 0003379 247.5701 112.5174 15.17211745  3544"
      },
      "geometry": {
        "type": "Point",
        "coordinates": [
          -121.48971443251774,
          -51.612214127658284
        ]
      }
    },
    {
      "type": "Feature",
      "properties": {
        "norad_id": 66727,
        "name": "FLOCK 4H-24",
        "group": "last-30-days",
        "lat": -57.555405417935006,
        "lon": -123.85377137779102,
        "alt_km": 525.8306729353981,
        "timestamp": "2025-12-22T09:53:36.144018+00:00",
        "meta_object_name": "FLOCK 4H-24",
        "meta_object_id": "2025-276BP",
        "meta_epoch": "2025-12-21T18:35:35.317248",
        "meta_mean_motion": 15.16663463,
        "meta_eccentricity": 0.0003584,
        "meta_inclination": 97.4444,
        "meta_ra_of_asc_node": 67.3902,
        "meta_arg_of_pericenter": 12.0689,
        "meta_mean_anomaly": 348.063,
        "meta_ephemeris_type": 0,
        "meta_classification_type": "U",
        "meta_norad_cat_id": 66727,
        "meta_element_set_no": 999,
        "meta_rev_at_epoch": 349,
        "meta_bstar": -0.014797,
        "meta_mean_motion_dot": -0.00278725,
        "meta_mean_motion_ddot": 0,
        "tle_line1": "1 66727U 25276BP  25355.77471432 -.00278725  00000+0 -14797-1 0  9996",
        "tle_line2": "2 66727  97.4444  67.3902 0003584  12.0689 348.0630 15.16663463  3496"
      },
      "geometry": {
        "type": "Point",
        "coordinates": [
          -123.85377137779102,
          -57.555405417935006
        ]
      }
    },
    {
      "type": "Feature",
      "properties": {
        "norad_id": 66728,
        "name": "FLOCK 4H-25",
        "group": "last-30-days",
        "lat": -43.00695302219572,
        "lon": 75.03377566063256,
        "alt_km": 519.005465498306,
        "timestamp": "2025-12-22T09:53:36.144028+00:00",
        "meta_object_name": "FLOCK 4H-25",
        "meta_object_id": "2025-276BQ",
        "meta_epoch": "2025-12-22T02:10:31.389312",
        "meta_mean_motion": 15.18200313,
        "meta_eccentricity": 0.0001599,
        "meta_inclination": 97.4402,
        "meta_ra_of_asc_node": 67.7162,
        "meta_arg_of_pericenter": 117.0571,
        "meta_mean_anomaly": 243.0827,
        "meta_ephemeris_type": 0,
        "meta_classification_type": "U",
        "meta_norad_cat_id": 66728,
        "meta_element_set_no": 999,
        "meta_rev_at_epoch": 282,
        "meta_bstar": 0.00031302,
        "meta_mean_motion_dot": 6.335e-05,
        "meta_mean_motion_ddot": 0,
        "tle_line1": "1 66728U 25276BQ  25356.09064108  .00006335  00000+0  31302-3 0  9998",
        "tle_line2": "2 66728  97.4402  67.7162 0001599 117.0571 243.0827 15.18200313  2824"
      },
      "geometry": {
        "type": "Point",
        "coordinates": [
          75.03377566063256,
          -43.00695302219572
        ]
      }
    },
    {
      "type": "Feature",
      "properties": {
        "norad_id": 66729,
        "name": "FLOCK 4H-26",
        "group": "last-30-days",
        "lat": -43.73804707783793,
        "lon": -119.19060024109065,
        "alt_km": 519.2301718015178,
        "timestamp": "2025-12-22T09:53:36.144038+00:00",
        "meta_object_name": "FLOCK 4H-26",
        "meta_object_id": "2025-276BR",
        "meta_epoch": "2025-12-22T04:09:33.907104",
        "meta_mean_motion": 15.17143649,
        "meta_eccentricity": 0.0003677,
        "meta_inclination": 97.4397,
        "meta_ra_of_asc_node": 67.7579,
        "meta_arg_of_pericenter": 264.0504,
        "meta_mean_anomaly": 96.031,
        "meta_ephemeris_type": 0,
        "meta_classification_type": "U",
        "meta_norad_cat_id": 66729,
        "meta_element_set_no": 999,
        "meta_rev_at_epoch": 355,
        "meta_bstar": 0.00052771,
        "meta_mean_motion_dot": 0.00010412,
        "meta_mean_motion_ddot": 0,
        "tle_line1": "1 66729U 25276BR  25356.17330911  .00010412  00000+0  52771-3 0  9990",
        "tle_line2": "2 66729  97.4397  67.7579 0003677 264.0504  96.0310 15.17143649  3559"
      },
      "geometry": {
        "type": "Point",
        "coordinates": [
          -119.19060024109065,
          -43.73804707783793
        ]
      }
    },
    {
      "type": "Feature",
      "properties": {
        "norad_id": 66730,
        "name": "FLOCK 4H-27",
        "group": "last-30-days",
        "lat": -54.192676515271074,
        "lon": 78.45278944967424,
        "alt_km": 519.494167686159,
        "timestamp": "2025-12-22T09:53:36.144051+00:00",
        "meta_object_name": "FLOCK 4H-27",
        "meta_object_id": "2025-276BS",
        "meta_epoch": "2025-12-22T03:48:24.882912",
        "meta_mean_motion": 15.18069778,
        "meta_eccentricity": 0.000113,
        "meta_inclination": 97.4377,
        "meta_ra_of_asc_node": 67.7706,
        "meta_arg_of_pericenter": 131.4071,
        "meta_mean_anomaly": 228.726,
        "meta_ephemeris_type": 0,
        "meta_classification_type": "U",
        "meta_norad_cat_id": 66730,
        "meta_element_set_no": 999,
        "meta_rev_at_epoch": 355,
        "meta_bstar": 0.00044829,
        "meta_mean_motion_dot": 9.071e-05,
        "meta_mean_motion_ddot": 0,
        "tle_line1": "1 66730U 25276BS  25356.15862133  .00009071  00000+0  44829-3 0  9990",
        "tle_line2": "2 66730  97.4377  67.7706 0001130 131.4071 228.7260 15.18069778  3558"
      },
      "geometry": {
        "type": "Point",
        "coordinates": [
          78.45278944967424,
          -54.192676515271074
        ]
      }
    },
    {
      "type": "Feature",
      "properties": {
        "norad_id": 66731,
        "name": "FLOCK 4H-28",
        "group": "last-30-days",
        "lat": -45.44702317946124,
        "lon": -119.63588001972352,
        "alt_km": 519.5842240360926,
        "timestamp": "2025-12-22T09:53:36.144063+00:00",
        "meta_object_name": "FLOCK 4H-28",
        "meta_object_id": "2025-276BT",
        "meta_epoch": "2025-12-22T04:09:06.310944",
        "meta_mean_motion": 15.17131722,
        "meta_eccentricity": 0.0003244,
        "meta_inclination": 97.4384,
        "meta_ra_of_asc_node": 67.7552,
        "meta_arg_of_pericenter": 266.6593,
        "meta_mean_anomaly": 93.4269,
        "meta_ephemeris_type": 0,
        "meta_classification_type": "U",
        "meta_norad_cat_id": 66731,
        "meta_element_set_no": 999,
        "meta_rev_at_epoch": 355,
        "meta_bstar": 0.00050109,
        "meta_mean_motion_dot": 9.879e-05,
        "meta_mean_motion_ddot": 0,
        "tle_line1": "1 66731U 25276BT  25356.17298971  .00009879  00000+0  50109-3 0  9990",
        "tle_line2": "2 66731  97.4384  67.7552 0003244 266.6593  93.4269 15.17131722  3558"
      },
      "geometry": {
        "type": "Point",
        "coordinates": [
          -119.63588001972352,
          -45.44702317946124
        ]
      }
    }
  ]
}